IRIDIUM 7               
1 24793U 97020B   25014.72100032  .00000524  00000+0  17461-3 0  9992
2 24793  86.3941 241.1759 0001710  87.7334 272.4058 14.35715087449879
IRIDIUM 5               
1 24795U 97020D   25014.92459412  .00005642  00000+0  49053-3 0  9993
2 24795  86.3940 154.2640 0112690 328.5221  30.9294 14.91934010462598
IRIDIUM 4               
1 24796U 97020E   25015.14952201  .00000503  00000+0  16448-3 0  9996
2 24796  86.3938 237.9727 0001918  83.4093 276.7323 14.36626884450524
IRIDIUM 914             
1 24836U 97030A   25014.67473336  .00000633  00000+0  19254-3 0  9998
2 24836  86.3916 247.2404 0002878  50.4289 309.7164 14.40600203585024
IRIDIUM 16              
1 24841U 97030F   25015.10092934  .00000632  00000+0  20077-3 0  9998
2 24841  86.4019 269.5968 0002002 149.6479 210.4836 14.38464817445258
IRIDIUM 911             
1 24842U 97030G   25014.78761980  .00000845  00000+0  22552-3 0  9992
2 24842  86.4444 268.6560 0012160 247.1507 112.8412 14.47295874452899
IRIDIUM 17              
1 24870U 97034B   25015.27211857  .00000757  00000+0  24603-3 0  9996
2 24870  86.3967 299.0859 0003122 113.8780 246.2745 14.37575172441618
IRIDIUM 920             
1 24871U 97034C   25014.80512642  .00000704  00000+0  21177-3 0  9996
2 24871  86.3966 278.8504 0009876 221.1087 138.9369 14.41281476444488
